NORAD_CAT_ID,OBJECT_NAME,OBJECT_TYPE,EPOCH,MEAN_MOTION,ECCENTRICITY,INCLINATION,RA_OF_ASC_NODE,ARG_OF_PERICENTER,MEAN_ANOMALY,BSTAR,MEAN_MOTION_DOT,MEAN_MOTION_DDOT,TLE_LINE0,TLE_LINE1,TLE_LINE2,SEMIMAJOR_AXIS,PERIOD,APOGEE,PERIGEE,DECAYED
50836.0,STARLINK-3330,PAYLOAD,2024-05-05 19:37:28,15.08843315,0.0001343,53.217,319.538,87.8622,272.2524,0.00053878,8.298e-05,0.0,0 STARLINK-3330,1 50836U 22001AK  24126.81769322  .00008298  00000-0  53878-3 0  9991,2 50836  53.2170 319.5380 0001343  87.8622 272.2524 15.08843315129942,6917.87,95.437,540.664,538.806,0.0
50836.0,STARLINK-3330,PAYLOAD,2024-05-06 19:28:15,15.0884915,0.0001224,53.2164,315.0767,84.9259,275.1872,0.00035419,5.355e-05,0.0,0 STARLINK-3330,1 50836U 22001AK  24127.81129049  .00005355  00000-0  35419-3 0  9990,2 50836  53.2164 315.0767 0001224  84.9259 275.1872 15.08849150130096,6917.852,95.437,540.564,538.871,0.0
50836.0,STARLINK-3330,PAYLOAD,2024-05-07 12:57:30,15.08826135,0.0001146,53.2165,311.8054,78.9496,281.1625,-0.00030221,-5.092e-05,0.0,0 STARLINK-3330,1 50836U 22001AK  24128.53993524 -.00005092  00000-0 -30221-3 0  9993,2 50836  53.2165 311.8054 0001146  78.9496 281.1625 15.08826135130203,6917.923,95.438,540.581,538.995,0.0
50836.0,STARLINK-3330,PAYLOAD,2024-05-07 19:19:02,15.08832872,0.0001279,53.2172,310.6194,91.2811,268.8328,-6.6913e-05,-1.352e-05,0.0,0 STARLINK-3330,1 50836U 22001AK  24128.80489581 -.00001352  00000-0 -66913-4 0  9999,2 50836  53.2172 310.6194 0001279  91.2811 268.8328 15.08832872128887,6917.902,95.438,540.652,538.882,0.0
50836.0,STARLINK-3330,PAYLOAD,2024-05-08 04:51:21,15.08843154,0.0001342,53.218,308.8344,88.1217,271.9928,0.00017601,2.515e-05,0.0,0 STARLINK-3330,1 50836U 22001AK  24129.20233411  .00002515  00000-0  17601-3 0  9992,2 50836  53.2180 308.8344 0001342  88.1217 271.9928 15.08843154130304,6917.871,95.437,540.664,538.807,0.0
50836.0,STARLINK-3330,PAYLOAD,2024-05-08 11:12:54,15.088391,0.0001359,53.2176,307.6447,89.5358,270.579,0.00013814,1.911e-05,0.0,0 STARLINK-3330,1 50836U 22001AK  24129.46729553  .00001911  00000-0  13814-3 0  9998,2 50836  53.2176 307.6447 0001359  89.5358 270.5790 15.08839100128988,6917.883,95.438,540.688,538.808,0.0
50836.0,STARLINK-3330,PAYLOAD,2024-05-08 19:09:50,15.08839931,0.00014,53.2179,306.1579,85.8252,274.29,0.00023163,3.4e-05,0.0,0 STARLINK-3330,1 50836U 22001AK  24129.79849750  .00003400  00000-0  23163-3 0  9999,2 50836  53.2179 306.1579 0001400  85.8252 274.2900 15.08839931130394,6917.881,95.438,540.714,538.777,0.0
50836.0,STARLINK-3330,PAYLOAD,2024-05-09 04:42:08,15.08848441,0.000145,53.2177,304.3737,86.366,273.7498,0.00044284,6.768e-05,0.0,0 STARLINK-3330,1 50836U 22001AK  24130.19593562  .00006768  00000-0  44284-3 0  9999,2 50836  53.2177 304.3737 0001450  86.3660 273.7498 15.08848441129099,6917.855,95.437,540.723,538.716,0.0
50836.0,STARLINK-3330,PAYLOAD,2024-05-09 19:00:37,15.08847919,0.0001191,53.2168,301.6958,83.9333,276.1795,0.00048449,7.433e-05,0.0,0 STARLINK-3330,1 50836U 22001AK  24130.79209753  .00007433  00000-0  48449-3 0  9998,2 50836  53.2168 301.6958 0001191  83.9333 276.1795 15.08847919129182,6917.856,95.437,540.545,538.897,0.0
50836.0,STARLINK-3330,PAYLOAD,2024-05-10 04:32:55,15.08861879,0.0001442,53.2182,299.9132,66.8721,293.2423,0.00083898,0.00013098,0.0,0 STARLINK-3330,1 50836U 22001AK  24131.18953486  .00013098  00000-0  83898-3 0  9992,2 50836  53.2182 299.9132 0001442  66.8721 293.2423 15.08861879130609,6917.814,95.436,540.676,538.681,0.0
50836.0,STARLINK-3330,PAYLOAD,2024-05-10 17:16:01,15.08840294,9.28e-05,53.2162,297.5329,78.0268,282.0828,0.00040894,6.227e-05,0.0,0 STARLINK-3330,1 50836U 22001AK  24131.71945625  .00006227  00000-0  40894-3 0  9992,2 50836  53.2162 297.5329 0000928  78.0268 282.0828 15.08840294130689,6917.879,95.438,540.386,539.103,0.0
50836.0,STARLINK-3330,PAYLOAD,2024-05-11 10:45:14,15.08889179,0.000117,53.215,294.2625,65.2935,294.8179,0.0023832,0.00037896,0.0,0 STARLINK-3330,1 50836U 22001AK  24132.44808914  .00037896  00000-0  23832-2 0  9990,2 50836  53.2150 294.2625 0001170  65.2935 294.8179 15.08889179130795,6917.73,95.434,540.404,538.786,0.0
50836.0,STARLINK-3330,PAYLOAD,2024-05-11 20:17:33,15.0884225,0.0001855,53.2178,292.4775,120.9823,239.1352,-0.0029851,-0.00047487,0.0,0 STARLINK-3330,1 50836U 22001AK  24132.84552712 -.00047487  00000-0 -29851-2 0  9992,2 50836  53.2178 292.4775 0001855 120.9823 239.1352 15.08842250130857,6917.874,95.437,541.022,538.455,0.0
50836.0,STARLINK-3330,PAYLOAD,2024-05-12 04:14:30,15.08779338,0.0002125,53.2174,290.9901,88.2163,271.9073,-0.0016019,-0.00025651,0.0,0 STARLINK-3330,1 50836U 22001AK  24133.17674694 -.00025651  00000-0 -16019-2 0  9994,2 50836  53.2174 290.9901 0002125  88.2163 271.9073 15.08779338130907,6918.066,95.441,541.401,538.461,0.0
50836.0,STARLINK-3330,PAYLOAD,2024-05-12 10:36:06,15.08756878,0.000458,53.2152,289.8013,88.0247,272.1269,0.00053936,8.287e-05,0.0,0 STARLINK-3330,1 50836U 22001AK  24133.44173721  .00008287  00000-0  53936-3 0  9993,2 50836  53.2152 289.8013 0004580  88.0247 272.1269 15.08756878130940,6918.134,95.443,543.168,536.831,0.0
50836.0,STARLINK-3330,PAYLOAD,2024-05-12 16:57:38,15.08776733,0.0001073,53.2156,288.6131,89.2577,270.8538,0.0024578,0.00038977,0.0,0 STARLINK-3330,1 50836U 22001AK  24133.70669894  .00038977  00000-0  24578-2 0  9991,2 50836  53.2156 288.6131 0001073  89.2577 270.8538 15.08776733130985,6918.074,95.442,540.681,539.196,0.0
50836.0,STARLINK-3330,PAYLOAD,2024-05-13 10:26:53,15.08846151,0.0001089,53.218,285.343,76.8848,283.2265,0.0013364,0.00021048,0.0,0 STARLINK-3330,1 50836U 22001AK  24134.43534520  .00021048  00000-0  13364-2 0  9991,2 50836  53.2180 285.3430 0001089  76.8848 283.2265 15.08846151129736,6917.862,95.437,540.48,538.973,0.0
50836.0,STARLINK-3330,PAYLOAD,2024-05-13 19:59:11,15.08877304,0.0001116,53.2174,283.5594,75.2953,284.8163,0.0017391,0.00027526,0.0,0 STARLINK-3330,1 50836U 22001AK  24134.83277688  .00027526  00000-0  17391-2 0  9995,2 50836  53.2174 283.5594 0001116  75.2953 284.8163 15.08877304131158,6917.766,95.435,540.403,538.859,0.0
50836.0,STARLINK-3330,PAYLOAD,2024-05-14 08:42:16,15.08889269,0.0002014,53.2176,281.1792,76.1283,283.9934,0.0012197,0.00019203,0.0,0 STARLINK-3330,1 50836U 22001AK  24135.36268587  .00019203  00000-0  12197-2 0  9994,2 50836  53.2176 281.1792 0002014  76.1283 283.9934 15.08889269131236,6917.73,95.434,540.988,538.202,0.0
50836.0,STARLINK-3330,PAYLOAD,2024-05-14 16:39:10,15.08890504,0.0001719,53.2179,279.6896,74.5214,285.5968,0.00099042,0.00015531,0.0,0 STARLINK-3330,1 50836U 22001AK  24135.69387712  .00015531  00000-0  99042-3 0  9997,2 50836  53.2179 279.6896 0001719  74.5214 285.5968 15.08890504131287,6917.726,95.434,540.78,538.402,0.0
50836.0,STARLINK-3330,PAYLOAD,2024-05-15 13:19:10,15.08860425,0.000118,53.2161,275.8227,68.9862,291.1256,-0.00034548,-5.785e-05,0.0,0 STARLINK-3330,1 50836U 22001AK  24136.55498023 -.00005785  00000-0 -34548-3 0  9993,2 50836  53.2161 275.8227 0001180  68.9862 291.1256 15.08860425131419,6917.818,95.436,540.499,538.867,0.0
50836.0,STARLINK-3330,PAYLOAD,2024-05-15 14:54:33,15.08859808,0.0001164,53.2161,275.5255,69.0767,291.0349,-0.00026565,-4.515e-05,0.0,0 STARLINK-3330,1 50836U 22001AK  24136.62121948 -.00004515  00000-0 -26565-3 0  9990,2 50836  53.2161 275.5255 0001164  69.0767 291.0349 15.08859808130060,6917.82,95.436,540.49,538.88,0.0
50836.0,STARLINK-3330,PAYLOAD,2024-05-16 02:02:14,15.08878982,0.0001206,53.2158,273.444,40.9206,319.1876,0.00083328,0.00013013,0.0,0 STARLINK-3330,1 50836U 22001AK  24137.08489098  .00013013  00000-0  83328-3 0  9995,2 50836  53.2158 273.4440 0001206  40.9206 319.1876 15.08878982131491,6917.761,95.435,540.461,538.792,0.0
50836.0,STARLINK-3330,PAYLOAD,2024-05-16 17:56:06,15.08835883,3.82e-05,53.2165,270.4722,35.5525,324.5493,0.00025187,3.723e-05,0.0,0 STARLINK-3330,1 50836U 22001AK  24137.74729359  .00003723  00000-0  25187-3 0  9991,2 50836  53.2165 270.4722 0000382  35.5525 324.5493 15.08835883131596,6917.893,95.438,540.022,539.494,0.0
50836.0,STARLINK-3330,PAYLOAD,2024-05-17 14:00:01,15.08825695,0.0001273,53.2151,266.7214,80.392,143.3727,0.0009266,0.00014484,0.0,0 STARLINK-3330,1 50836U 22001AK  24138.58334491  .00014484  00000-0  92660-3 0  9999,2 50836  53.2151 266.7214 0001273  80.3920 143.3727 15.08825695131713,6917.924,95.438,540.67,538.908,0.0
50836.0,STARLINK-3330,PAYLOAD,2024-05-17 17:46:54,15.08823523,0.0001648,53.2172,266.0104,78.6917,281.426,-0.00059664,-9.767e-05,0.0,0 STARLINK-3330,1 50836U 22001AK  24138.74091215 -.00009767  00000-0 -59664-3 0  9998,2 50836  53.2172 266.0104 0001648  78.6917 281.4260 15.08823523130385,6917.931,95.439,540.936,538.656,0.0
50836.0,STARLINK-3330,PAYLOAD,2024-05-18 14:26:55,15.08854316,0.0001244,53.2122,262.1472,86.6457,273.4678,0.0016679,0.00026367,0.0,0 STARLINK-3330,1 50836U 22001AK  24139.60203209  .00026367  00000-0  16679-2 0  9993,2 50836  53.2122 262.1472 0001244  86.6457 273.4678 15.08854316130518,6917.837,95.437,540.562,538.841,0.0
50836.0,STARLINK-3330,PAYLOAD,2024-05-19 01:34:36,15.0889705,0.0001219,53.2141,260.0655,87.0757,273.0375,0.0020726,0.00032903,0.0,0 STARLINK-3330,1 50836U 22001AK  24140.06569766  .00032903  00000-0  20726-2 0  9999,2 50836  53.2141 260.0655 0001219  87.0757 273.0375 15.08897050131949,6917.706,95.434,540.414,538.728,0.0
50836.0,STARLINK-3330,PAYLOAD,2024-05-19 14:17:42,15.08805739,0.0001308,53.2164,257.686,124.9096,235.2019,0.001676,0.00026461,0.0,0 STARLINK-3330,1 50836U 22001AK  24140.59563321  .00026461  00000-0  16760-2 0  9993,2 50836  53.2164 257.6860 0001308 124.9096 235.2019 15.08805739130666,6917.985,95.44,540.755,538.945,0.0
50836.0,STARLINK-3330,PAYLOAD,2024-05-19 17:28:29,15.0881357,0.0001446,53.2164,257.0908,123.5537,236.5593,0.0024671,0.00039166,0.0,0 STARLINK-3330,1 50836U 22001AK  24140.72811714  .00039166  00000-0  24671-2 0  9996,2 50836  53.2164 257.0908 0001446 123.5537 236.5593 15.08813570132048,6917.961,95.439,540.827,538.826,0.0
